{
  "links" : {
    "next" : "https://api.nasa.gov/neo/rest/v1/feed?start_date=1997-07-09&end_date=1997-07-09&detailed=true&api_key=t0TVs3DtDT2H8Oy2Zy8m2eVrNsAVKAexjcZXUckd",
    "prev" : "https://api.nasa.gov/neo/rest/v1/feed?start_date=1997-07-07&end_date=1997-07-07&detailed=true&api_key=t0TVs3DtDT2H8Oy2Zy8m2eVrNsAVKAexjcZXUckd",
    "self" : "https://api.nasa.gov/neo/rest/v1/feed?start_date=1997-07-08&end_date=1997-07-08&detailed=true&api_key=t0TVs3DtDT2H8Oy2Zy8m2eVrNsAVKAexjcZXUckd"
  },
  "element_count" : 7,
  "near_earth_objects" : {
    "1997-07-08" : [ {
      "links" : {
        "self" : "https://api.nasa.gov/neo/rest/v1/neo/3309092?api_key=t0TVs3DtDT2H8Oy2Zy8m2eVrNsAVKAexjcZXUckd"
      },
      "neo_reference_id" : "3309092",
      "name" : "(2005 YR3)",
      "nasa_jpl_url" : "http://ssd.jpl.nasa.gov/sbdb.cgi?sstr=3309092",
      "absolute_magnitude_h" : 23.1,
      "estimated_diameter" : {
        "kilometers" : {
          "estimated_diameter_min" : 0.063760979,
          "estimated_diameter_max" : 0.1425738833
        },
        "meters" : {
          "estimated_diameter_min" : 63.7609789875,
          "estimated_diameter_max" : 142.5738833281
        },
        "miles" : {
          "estimated_diameter_min" : 0.0396192233,
          "estimated_diameter_max" : 0.0885912765
        },
        "feet" : {
          "estimated_diameter_min" : 209.1895703015,
          "estimated_diameter_max" : 467.7620993781
        }
      },
      "is_potentially_hazardous_asteroid" : false,
      "close_approach_data" : [ {
        "close_approach_date" : "1997-07-08",
        "epoch_date_close_approach" : 868345200000,
        "relative_velocity" : {
          "kilometers_per_second" : "14.2666666027",
          "kilometers_per_hour" : "51359.9997697132",
          "miles_per_hour" : "31913.1065235754"
        },
        "miss_distance" : {
          "astronomical" : "0.4209216968",
          "lunar" : "163.7385406494",
          "kilometers" : "62968988",
          "miles" : "39127116"
        },
        "orbiting_body" : "Earth"
      } ],
      "orbital_data" : {
        "orbit_id" : "25",
        "orbit_determination_date" : "2017-04-06 09:09:36",
        "orbit_uncertainty" : "1",
        "minimum_orbit_intersection" : ".00449776",
        "jupiter_tisserand_invariant" : "7.108",
        "epoch_osculation" : "2458000.5",
        "eccentricity" : ".2734902788074861",
        "semi_major_axis" : ".8199373454771401",
        "inclination" : "3.280906410035641",
        "ascending_node_longitude" : "75.27148580402213",
        "orbital_period" : "271.1873505988839",
        "perihelion_distance" : ".595692452257927",
        "perihelion_argument" : "218.0210032865788",
        "aphelion_distance" : "1.044182238696353",
        "perihelion_time" : "2457947.816354866269",
        "mean_anomaly" : "69.93730425205582",
        "mean_motion" : "1.327495545809878",
        "equinox" : "J2000"
      }
    }, {
      "links" : {
        "self" : "https://api.nasa.gov/neo/rest/v1/neo/3385160?api_key=t0TVs3DtDT2H8Oy2Zy8m2eVrNsAVKAexjcZXUckd"
      },
      "neo_reference_id" : "3385160",
      "name" : "(2007 RM133)",
      "nasa_jpl_url" : "http://ssd.jpl.nasa.gov/sbdb.cgi?sstr=3385160",
      "absolute_magnitude_h" : 18.1,
      "estimated_diameter" : {
        "kilometers" : {
          "estimated_diameter_min" : 0.6376097899,
          "estimated_diameter_max" : 1.4257388333
        },
        "meters" : {
          "estimated_diameter_min" : 637.6097898754,
          "estimated_diameter_max" : 1425.7388332807
        },
        "miles" : {
          "estimated_diameter_min" : 0.3961922327,
          "estimated_diameter_max" : 0.8859127646
        },
        "feet" : {
          "estimated_diameter_min" : 2091.8957030147,
          "estimated_diameter_max" : 4677.6209937807
        }
      },
      "is_potentially_hazardous_asteroid" : false,
      "close_approach_data" : [ {
        "close_approach_date" : "1997-07-08",
        "epoch_date_close_approach" : 868345200000,
        "relative_velocity" : {
          "kilometers_per_second" : "6.4486422375",
          "kilometers_per_hour" : "23215.1120551113",
          "miles_per_hour" : "14424.9678211329"
        },
        "miss_distance" : {
          "astronomical" : "0.2166532364",
          "lunar" : "84.2781143188",
          "kilometers" : "32410864",
          "miles" : "20139178"
        },
        "orbiting_body" : "Earth"
      } ],
      "orbital_data" : {
        "orbit_id" : "25",
        "orbit_determination_date" : "2017-09-28 06:48:13",
        "orbit_uncertainty" : "1",
        "minimum_orbit_intersection" : ".22216",
        "jupiter_tisserand_invariant" : "3.504",
        "epoch_osculation" : "2458000.5",
        "eccentricity" : ".4397336825726461",
        "semi_major_axis" : "2.210686532951117",
        "inclination" : "10.74216185765546",
        "ascending_node_longitude" : "106.1175344694409",
        "orbital_period" : "1200.574667303271",
        "perihelion_distance" : "1.238573202802767",
        "perihelion_argument" : "180.9470004620077",
        "aphelion_distance" : "3.182799863099466",
        "perihelion_time" : "2457840.152079676361",
        "mean_anomaly" : "48.08135044709263",
        "mean_motion" : ".299856401941773",
        "equinox" : "J2000"
      }
    }, {
      "links" : {
        "self" : "https://api.nasa.gov/neo/rest/v1/neo/3644702?api_key=t0TVs3DtDT2H8Oy2Zy8m2eVrNsAVKAexjcZXUckd"
      },
      "neo_reference_id" : "3644702",
      "name" : "(2013 NV)",
      "nasa_jpl_url" : "http://ssd.jpl.nasa.gov/sbdb.cgi?sstr=3644702",
      "absolute_magnitude_h" : 20.2,
      "estimated_diameter" : {
        "kilometers" : {
          "estimated_diameter_min" : 0.2424124811,
          "estimated_diameter_max" : 0.5420507863
        },
        "meters" : {
          "estimated_diameter_min" : 242.4124811008,
          "estimated_diameter_max" : 542.0507863358
        },
        "miles" : {
          "estimated_diameter_min" : 0.1506280858,
          "estimated_diameter_max" : 0.3368146392
        },
        "feet" : {
          "estimated_diameter_min" : 795.3165644948,
          "estimated_diameter_max" : 1778.3819018419
        }
      },
      "is_potentially_hazardous_asteroid" : true,
      "close_approach_data" : [ {
        "close_approach_date" : "1997-07-08",
        "epoch_date_close_approach" : 868345200000,
        "relative_velocity" : {
          "kilometers_per_second" : "30.9735777005",
          "kilometers_per_hour" : "111504.8797219505",
          "miles_per_hour" : "69284.795958342"
        },
        "miss_distance" : {
          "astronomical" : "0.4128711125",
          "lunar" : "160.6068725586",
          "kilometers" : "61764640",
          "miles" : "38378768"
        },
        "orbiting_body" : "Earth"
      } ],
      "orbital_data" : {
        "orbit_id" : "43",
        "orbit_determination_date" : "2017-07-17 06:17:43",
        "orbit_uncertainty" : "0",
        "minimum_orbit_intersection" : ".0393898",
        "jupiter_tisserand_invariant" : "6.072",
        "epoch_osculation" : "2458000.5",
        "eccentricity" : ".5110210928269004",
        "semi_major_axis" : ".9584527139008473",
        "inclination" : "29.29023187104017",
        "ascending_node_longitude" : "275.6201964097665",
        "orbital_period" : "342.7318490825863",
        "perihelion_distance" : ".4686631606203278",
        "perihelion_argument" : "227.7976271399708",
        "aphelion_distance" : "1.448242267181367",
        "perihelion_time" : "2458123.142703618804",
        "mean_anomaly" : "231.178084496809",
        "mean_motion" : "1.05038385245969",
        "equinox" : "J2000"
      }
    } ]
  }
}